0 PEGASUS R/B
1 22491U 93009C   13282.35195837  .00000675  00000-0  11573-3 0  6205
2 22491 024.9774 259.2302 0049130 133.8859 013.2162 14.51615626 94892
0 PEGASUS R/B
1 22491U 93009C   13284.20228451  .00000693  00000-0  12013-3 0  6211
2 22491 024.9774 247.7041 0049048 153.7019 322.6169 14.51616943 95169
0 PEGASUS R/B
1 22491U 93009C   13285.30917203  .00000594  00000-0  96221-4 0  6228
2 22491 024.9773 240.8091 0048967 165.5305 347.0007 14.51617743 95324
0 PEGASUS R/B
1 22491U 93009C   13287.16185109  .00000697  00000-0  12099-3 0  6231
2 22491 024.9773 229.2685 0048903 185.3974 308.6916 14.51619206 95593
0 PEGASUS R/B
1 22491U 93009C   13288.19426199  .00000904  00000-0  17089-3 0  6248
2 22491 024.9772 222.8374 0048868 196.4473 303.8673 14.51621419 95746
0 PEGASUS R/B
1 22491U 93009C   13290.19012471  .00000737  00000-0  13065-3 0  6250
2 22491 024.9770 210.4048 0048822 217.8715 293.8071 14.51623711 96032
0 PEGASUS R/B
1 22491U 93009C   13292.18537973  .00000774  00000-0  13941-3 0  6265
2 22491 024.9767 197.9759 0048861 239.3238 280.5578 14.51625966 96329
0 PEGASUS R/B
1 22491U 93009C   13293.81520888  .00000827  00000-0  15229-3 0  6274
2 22491 024.9765 187.8233 0048927 256.8253 157.7105 14.51628033 96561
0 PEGASUS R/B
1 22491U 93009C   13294.84974061  .00000858  00000-0  15989-3 0  6282
2 22491 024.9764 181.3788 0048951 267.9070 163.9946 14.51629905 96719
0 PEGASUS R/B
1 22491U 93009C   13296.03113032  .00000864  00000-0  16119-3 0  6292
2 22491 024.9764 174.0192 0048981 280.5426 217.7591 14.51631663 96882
